HAWK-A                  
1 43765U 18099H   26068.67628545  .00008617  00000+0  36104-3 0  9995
2 43765  97.4051 122.2425 0034260 275.5523  84.1807 15.23231043397949
STARLINK-31242          
1 58864U 24019M   26068.56703941  .00003035  00000+0  11980-3 0  9996
2 58864  43.0025 249.6197 0001672 266.6123  93.4538 15.27574666119065
